[{"OBJECT_NAME":"STARLINK-35009","OBJECT_ID":"2025-194R","EPOCH":"2026-03-09T13:31:58.436256","MEAN_MOTION":15.05657862,"ECCENTRICITY":0.0001481,"INCLINATION":97.6013,"RA_OF_ASC_NODE":284.3456,"ARG_OF_PERICENTER":69.5792,"MEAN_ANOMALY":290.5594,"EPHEMERIS_TYPE":0,"CLASSIFICATION_TYPE":"U","NORAD_CAT_ID":65449,"ELEMENT_SET_NO":999,"REV_AT_EPOCH":2963,"BSTAR":0.00028714,"MEAN_MOTION_DOT":4.086e-5,"MEAN_MOTION_DDOT":0},{"OBJECT_NAME":"DELTA 1 R\/B","OBJECT_ID":"1970-003B","EPOCH":"2026-03-09T09:43:30.531936","MEAN_MOTION":3.26715545,"ECCENTRICITY":0.6511692,"INCLINATION":27.9074,"RA_OF_ASC_NODE":112.2771,"ARG_OF_PERICENTER":332.1786,"MEAN_ANOMALY":4.6326,"EPHEMERIS_TYPE":0,"CLASSIFICATION_TYPE":"U","NORAD_CAT_ID":4298,"ELEMENT_SET_NO":999,"REV_AT_EPOCH":56054,"BSTAR":0.001883,"MEAN_MOTION_DOT":3.901e-5,"MEAN_MOTION_DDOT":0}]
